{"fetched_at":"2026-07-23T17:55:51.007Z","source":"https://celestrak.org/NORAD/elements/gp.php?NAME=SENTINEL&FORMAT=JSON","constellation":"sentinel-2","records":[{"OBJECT_NAME":"SENTINEL-2A","OBJECT_ID":"2015-028A","EPOCH":"2026-07-23T07:10:01.353792","CLASSIFICATION_TYPE":"U","MEAN_MOTION":14.30815885,"ECCENTRICITY":0.0001347,"INCLINATION":98.5669,"RA_OF_ASC_NODE":278.6352,"ARG_OF_PERICENTER":97.9035,"MEAN_ANOMALY":262.2301,"EPHEMERIS_TYPE":0,"NORAD_CAT_ID":40697,"ELEMENT_SET_NO":999,"REV_AT_EPOCH":57889,"BSTAR":0.000008134966,"MEAN_MOTION_DOT":-2.2e-7,"MEAN_MOTION_DDOT":0},{"OBJECT_NAME":"SENTINEL-2B","OBJECT_ID":"2017-013A","EPOCH":"2026-07-23T06:59:39.869088","CLASSIFICATION_TYPE":"U","MEAN_MOTION":14.30816245,"ECCENTRICITY":0.0001232,"INCLINATION":98.5676,"RA_OF_ASC_NODE":278.5537,"ARG_OF_PERICENTER":93.8929,"MEAN_ANOMALY":266.2395,"EPHEMERIS_TYPE":0,"NORAD_CAT_ID":42063,"ELEMENT_SET_NO":999,"REV_AT_EPOCH":48980,"BSTAR":-0.000025046388,"MEAN_MOTION_DOT":-0.00000109,"MEAN_MOTION_DDOT":0},{"OBJECT_NAME":"SENTINEL-2C","OBJECT_ID":"2024-157A","EPOCH":"2026-07-23T04:28:38.090208","CLASSIFICATION_TYPE":"U","MEAN_MOTION":14.30817349,"ECCENTRICITY":0.00010443,"INCLINATION":98.5678,"RA_OF_ASC_NODE":278.4566,"ARG_OF_PERICENTER":108.836,"MEAN_ANOMALY":251.2937,"EPHEMERIS_TYPE":0,"NORAD_CAT_ID":60989,"ELEMENT_SET_NO":999,"REV_AT_EPOCH":9813,"BSTAR":0.00004410906,"MEAN_MOTION_DOT":7.2e-7,"MEAN_MOTION_DDOT":0}]}
