SENTINEL-2A             
1 40697U 15028A   26204.29862678 -.00000022  00000+0  81350-5 0  9990
2 40697  98.5669 278.6352 0001347  97.9035 262.2301 14.30815885578898
SENTINEL-2B             
1 42063U 17013A   26204.29143367 -.00000109  00000+0 -25046-4 0  9998
2 42063  98.5676 278.5537 0001232  93.8929 266.2395 14.30816245489809
SENTINEL-2C             
1 60989U 24157A   26204.18655197  .00000072  00000+0  44109-4 0  9997
2 60989  98.5678 278.4566 0001044 108.8360 251.2937 14.30817349 98130
